[{"OBJECT_NAME":"YAOGAN-30 08C","OBJECT_ID":"2020-076C","EPOCH":"2026-03-09T22:12:19.215360","MEAN_MOTION":15.02142271,"ECCENTRICITY":0.00075536,"INCLINATION":34.9972,"RA_OF_ASC_NODE":335.6323,"ARG_OF_PERICENTER":280.0853,"MEAN_ANOMALY":79.9003,"EPHEMERIS_TYPE":0,"CLASSIFICATION_TYPE":"U","NORAD_CAT_ID":46809,"ELEMENT_SET_NO":999,"REV_AT_EPOCH":29320,"BSTAR":0.00034959402,"MEAN_MOTION_DOT":4.668e-5,"MEAN_MOTION_DDOT":0},{"OBJECT_NAME":"STARLINK-34959","OBJECT_ID":"2025-179M","EPOCH":"2026-03-09T16:38:13.453728","MEAN_MOTION":15.05647685,"ECCENTRICITY":5.195e-5,"INCLINATION":97.6022,"RA_OF_ASC_NODE":112.8869,"ARG_OF_PERICENTER":150.1966,"MEAN_ANOMALY":209.9291,"EPHEMERIS_TYPE":0,"CLASSIFICATION_TYPE":"U","NORAD_CAT_ID":65246,"ELEMENT_SET_NO":999,"REV_AT_EPOCH":3182,"BSTAR":8.6911505e-5,"MEAN_MOTION_DOT":1.193e-5,"MEAN_MOTION_DDOT":0}]
